ONEWEB-0228             
1 48780U 21045P   24038.56418620 -.00000068  00000+0 -21396-3 0  9997
2 48780  87.8945  70.4839 0002042  95.0181 265.1182 13.15547103131171
